sat19511
1 19511U 65027AU  20046.70796104  .00000536  00000-0  18352-2 0  9998
2 19511  90.3004 302.9195 0035218  24.2478  29.6499 12.96795436501962
